{"attribution":{"osm_extract_date":"2024-01-15","text":"© OpenStreetMap contributors, data available under the Open Database License (ODbL). Additional sources: India Meteorological Department, Cyclone Michaung bulletins, December 2023; weather values here are synthetic and Michaung-style. Authored synthetic Weather_Snapshot for the Minnal demo; no third-party weather values reproduced."},"features":[{"geometry":{"coordinates":[80.21,13.02],"type":"Point"},"id":"fac_001","properties":{"category":"hospital","feature_type":"Critical_Facility","id":"fac_001","name":"Government General Hospital","osm_id":"way/2000000001","parent_id":"dt_191","synthetic":false},"type":"Feature"},{"geometry":{"coordinates":[80.18,13.04],"type":"Point"},"id":"fac_002","properties":{"category":"water_pumping","feature_type":"Critical_Facility","id":"fac_002","name":"Kilpauk Water Works","osm_id":"way/2000000002","parent_id":"dt_081","synthetic":false},"type":"Feature"},{"geometry":{"coordinates":[80.25,13.07],"type":"Point"},"id":"fac_003","properties":{"category":"sewage_pumping","feature_type":"Critical_Facility","id":"fac_003","name":"Koyambedu Sewage Treatment Plant","osm_id":"way/2000000003","parent_id":"dt_124","synthetic":false},"type":"Feature"},{"geometry":{"coordinates":[80.2,12.98],"type":"Point"},"id":"fac_004","properties":{"category":"telecom","feature_type":"Critical_Facility","id":"fac_004","name":"Anna Nagar Telecom Tower","osm_id":"node/2000000004","parent_id":"dt_084","synthetic":false},"type":"Feature"},{"geometry":{"coordinates":[80.24,13.11],"type":"Point"},"id":"fac_005","properties":{"category":"emergency_services","feature_type":"Critical_Facility","id":"fac_005","name":"Ambattur Fire Station","osm_id":"way/2000000005","parent_id":"dt_020","synthetic":false},"type":"Feature"},{"geometry":{"coordinates":[80.16,13.1],"type":"Point"},"id":"fac_006","properties":{"category":"relief_shelter","feature_type":"Critical_Facility","id":"fac_006","name":"Corporation Relief Shelter","osm_id":"way/2000000006","parent_id":"dt_145","synthetic":false},"type":"Feature"}],"type":"FeatureCollection"}
