{"attribution":{"osm_extract_date":"2024-01-15","text":"© OpenStreetMap contributors, data available under the Open Database License (ODbL). Additional sources: India Meteorological Department, Cyclone Michaung bulletins, December 2023; weather values here are synthetic and Michaung-style. Authored synthetic Weather_Snapshot for the Minnal demo; no third-party weather values reproduced."},"features":[{"geometry":{"coordinates":[80.16,12.97],"type":"Point"},"id":"crew_000","properties":{"feature_type":"Crew","id":"crew_000","member_ids":["mem_000","mem_001"],"skills":["overhead_line","make_safe"],"synthetic":true},"type":"Feature"},{"geometry":{"coordinates":[80.18,12.98],"type":"Point"},"id":"crew_001","properties":{"feature_type":"Crew","id":"crew_001","member_ids":["mem_002","mem_003"],"skills":["underground_cable","switching"],"synthetic":true},"type":"Feature"},{"geometry":{"coordinates":[80.2,12.99],"type":"Point"},"id":"crew_002","properties":{"feature_type":"Crew","id":"crew_002","member_ids":["mem_004","mem_005"],"skills":["overhead_line","switching","make_safe"],"synthetic":true},"type":"Feature"},{"geometry":{"coordinates":[80.22,13.0],"type":"Point"},"id":"crew_003","properties":{"feature_type":"Crew","id":"crew_003","member_ids":["mem_006","mem_007"],"skills":["make_safe"],"synthetic":true},"type":"Feature"},{"geometry":{"coordinates":[80.17,13.01],"type":"Point"},"id":"crew_004","properties":{"feature_type":"Crew","id":"crew_004","member_ids":["mem_008","mem_009"],"skills":["overhead_line","make_safe"],"synthetic":true},"type":"Feature"},{"geometry":{"coordinates":[80.19,13.02],"type":"Point"},"id":"crew_005","properties":{"feature_type":"Crew","id":"crew_005","member_ids":["mem_010","mem_011"],"skills":["underground_cable","switching"],"synthetic":true},"type":"Feature"},{"geometry":{"coordinates":[80.21,13.03],"type":"Point"},"id":"crew_006","properties":{"feature_type":"Crew","id":"crew_006","member_ids":["mem_012","mem_013"],"skills":["overhead_line","switching","make_safe"],"synthetic":true},"type":"Feature"},{"geometry":{"coordinates":[80.23,13.02],"type":"Point"},"id":"crew_007","properties":{"feature_type":"Crew","id":"crew_007","member_ids":["mem_014","mem_015"],"skills":["make_safe"],"synthetic":true},"type":"Feature"},{"geometry":{"coordinates":[80.16,13.1],"type":"Point"},"id":"crew_008","properties":{"feature_type":"Crew","id":"crew_008","member_ids":["mem_016","mem_017"],"skills":["overhead_line","make_safe"],"synthetic":true},"type":"Feature"},{"geometry":{"coordinates":[80.18,13.12],"type":"Point"},"id":"crew_009","properties":{"feature_type":"Crew","id":"crew_009","member_ids":["mem_018","mem_019"],"skills":["underground_cable","switching"],"synthetic":true},"type":"Feature"},{"geometry":{"coordinates":[80.2,13.14],"type":"Point"},"id":"crew_010","properties":{"feature_type":"Crew","id":"crew_010","member_ids":["mem_020","mem_021"],"skills":["overhead_line","switching","make_safe"],"synthetic":true},"type":"Feature"},{"geometry":{"coordinates":[80.22,13.14],"type":"Point"},"id":"crew_011","properties":{"feature_type":"Crew","id":"crew_011","member_ids":["mem_022","mem_023"],"skills":["make_safe"],"synthetic":true},"type":"Feature"}],"type":"FeatureCollection"}
